{"type": "FeatureCollection", "features": [ {"type": "Feature", "properties": {"norad_id": 41549, "name": "GSAT0211 (GALILEO 14)", "group": "gnss", "lat": -54.24260928866595, "lon": 122.10074211425598, "alt_km": 23232.356764979897, "timestamp": "2025-12-06T05:40:09.483705+00:00", "meta": {"OBJECT_NAME": "GSAT0211 (GALILEO 14)", "OBJECT_ID": "2016-030A", "EPOCH": "2025-12-04T15:17:32.790048", "MEAN_MOTION": 1.70472925, "ECCENTRICITY": 0.00039451, "INCLINATION": 55.1551, "RA_OF_ASC_NODE": 227.0467, "ARG_OF_PERICENTER": 12.3132, "MEAN_ANOMALY": 347.7919, "EPHEMERIS_TYPE": 0, "CLASSIFICATION_TYPE": "U", "NORAD_CAT_ID": 41549, "ELEMENT_SET_NO": 999, "REV_AT_EPOCH": 5935, "BSTAR": 0, "MEAN_MOTION_DOT": 4e-07, "MEAN_MOTION_DDOT": 0}, "tle": {"line1": "1 41549U 16030A   25338.63718507  .00000040  00000+0  00000+0 0  9993", "line2": "2 41549  55.1551 227.0467 0003945  12.3132 347.7919  1.70472925 59357"}}, "geometry": {"type": "Point", "coordinates": [122.10074211425598, -54.24260928866595]}}, {"type": "Feature", "properties": {"norad_id": 41550, "name": "GSAT0210 (GALILEO 13)", "group": "gnss", "lat": 52.99022516047946, "lon": -20.37736755682856, "alt_km": 23219.316392576045, "timestamp": "2025-12-06T05:40:09.483717+00:00", "meta": {"OBJECT_NAME": "GSAT0210 (GALILEO 13)", "OBJECT_ID": "2016-030B", "EPOCH": "2025-12-04T07:23:32.472672", "MEAN_MOTION": 1.70473512, "ECCENTRICITY": 0.0001419, "INCLINATION": 55.1546, "RA_OF_ASC_NODE": 227.0538, "ARG_OF_PERICENTER": 244.2228, "MEAN_ANOMALY": 115.8568, "EPHEMERIS_TYPE": 0, "CLASSIFICATION_TYPE": "U", "NORAD_CAT_ID": 41550, "ELEMENT_SET_NO": 999, "REV_AT_EPOCH": 5934, "BSTAR": 0, "MEAN_MOTION_DOT": 4e-07, "MEAN_MOTION_DDOT": 0}, "tle": {"line1": "1 41550U 16030B   25338.30801473  .00000040  00000+0  00000+0 0  9994", "line2": "2 41550  55.1546 227.0538 0001419 244.2228 115.8568  1.70473512 59344"}}, "geometry": {"type": "Point", "coordinates": [-20.37736755682856, 52.99022516047946]}}, {"type": "Feature", "properties": {"norad_id": 41586, "name": "BEIDOU-2 G7 (C03)", "group": "gnss", "lat": -0.7052767296753879, "lon": -89.23376630495169, "alt_km": 35803.912524432686, "timestamp": "2025-12-06T05:40:09.483733+00:00", "meta": {"OBJECT_NAME": "BEIDOU-2 G7 (C03)", "OBJECT_ID": "2016-037A", "EPOCH": "2025-12-05T14:13:25.464576", "MEAN_MOTION": 1.00270507, "ECCENTRICITY": 0.0004355, "INCLINATION": 1.7387, "RA_OF_ASC_NODE": 67.7225, "ARG_OF_PERICENTER": 2.4156, "MEAN_ANOMALY": 328.3509, "EPHEMERIS_TYPE": 0, "CLASSIFICATION_TYPE": "U", "NORAD_CAT_ID": 41586, "ELEMENT_SET_NO": 999, "REV_AT_EPOCH": 494, "BSTAR": 0, "MEAN_MOTION_DOT": -3.44e-06, "MEAN_MOTION_DDOT": 0}, "tle": {"line1": "1 41586U 16037A   25339.59265584 -.00000344  00000+0  00000+0 0  9997", "line2": "2 41586   1.7387  67.7225 0004355   2.4156 328.3509  1.00270507  4945"}}, "geometry": {"type": "Point", "coordinates": [-89.23376630495169, -0.7052767296753879]}}, {"type": "Feature", "properties": {"norad_id": 41589, "name": "EUTELSAT 117 WEST B (WAAS/PRN 131)", "group": "gnss", "lat": -0.016403377013756017, "lon": 43.291373326522574, "alt_km": 35786.447840179724, "timestamp": "2025-12-06T05:40:09.483747+00:00", "meta": {"OBJECT_NAME": "EUTELSAT 117 WEST B (WAAS/PRN 131)", "OBJECT_ID": "2016-038B", "EPOCH": "2025-12-04T23:26:32.000928", "MEAN_MOTION": 1.00268963, "ECCENTRICITY": 2.521e-05, "INCLINATION": 0.0075, "RA_OF_ASC_NODE": 147.6568, "ARG_OF_PERICENTER": 325.2322, "MEAN_ANOMALY": 195.7827, "EPHEMERIS_TYPE": 0, "CLASSIFICATION_TYPE": "U", "NORAD_CAT_ID": 41589, "ELEMENT_SET_NO": 999, "REV_AT_EPOCH": 3471, "BSTAR": 0, "MEAN_MOTION_DOT": 2e-08, "MEAN_MOTION_DDOT": 0}, "tle": {"line1": "1 41589U 16038B   25338.97675927  .00000002  00000+0  00000+0 0  9998", "line2": "2 41589   0.0075 147.6568 0000252 325.2322 195.7827  1.00268963 34715"}}, "geometry": {"type": "Point", "coordinates": [43.291373326522574, -0.016403377013756017]}}, {"type": "Feature", "properties": {"norad_id": 41859, "name": "GSAT0207 (GALILEO 15)", "group": "gnss", "lat": -49.44733222905382, "lon": 52.64187008154185, "alt_km": 23222.37192463592, "timestamp": "2025-12-06T05:40:09.483759+00:00", "meta": {"OBJECT_NAME": "GSAT0207 (GALILEO 15)", "OBJECT_ID": "2016-069A", "EPOCH": "2025-12-03T23:59:33.819072", "MEAN_MOTION": 1.70474248, "ECCENTRICITY": 0.0002136, "INCLINATION": 55.3774, "RA_OF_ASC_NODE": 106.4923, "ARG_OF_PERICENTER": 325.6107, "MEAN_ANOMALY": 34.3288, "EPHEMERIS_TYPE": 0, "CLASSIFICATION_TYPE": "U", "NORAD_CAT_ID": 41859, "ELEMENT_SET_NO": 999, "REV_AT_EPOCH": 5607, "BSTAR": 0, "MEAN_MOTION_DOT": 1.5e-07, "MEAN_MOTION_DDOT": 0}, "tle": {"line1": "1 41859U 16069A   25337.99969698  .00000015  00000+0  00000+0 0  9998", "line2": "2 41859  55.3774 106.4923 0002136 325.6107  34.3288  1.70474248 56074"}}, "geometry": {"type": "Point", "coordinates": [52.64187008154185, -49.44733222905382]}}, {"type": "Feature", "properties": {"norad_id": 41860, "name": "GSAT0212 (GALILEO 16)", "group": "gnss", "lat": 18.295719351667152, "lon": 119.60357673958693, "alt_km": 23213.482104151826, "timestamp": "2025-12-06T05:40:09.483771+00:00", "meta": {"OBJECT_NAME": "GSAT0212 (GALILEO 16)", "OBJECT_ID": "2016-069B", "EPOCH": "2025-12-02T16:19:30.905184", "MEAN_MOTION": 1.70474418, "ECCENTRICITY": 0.00022458, "INCLINATION": 55.3738, "RA_OF_ASC_NODE": 106.5243, "ARG_OF_PERICENTER": 34.2432, "MEAN_ANOMALY": 325.7313, "EPHEMERIS_TYPE": 0, "CLASSIFICATION_TYPE": "U", "NORAD_CAT_ID": 41860, "ELEMENT_SET_NO": 999, "REV_AT_EPOCH": 5630, "BSTAR": 0, "MEAN_MOTION_DOT": 2.7e-07, "MEAN_MOTION_DDOT": 0}, "tle": {"line1": "1 41860U 16069B   25336.68021881  .00000027  00000+0  00000+0 0  9991", "line2": "2 41860  55.3738 106.5243 0002245  34.2432 325.7313  1.70474418 56308"}}, "geometry": {"type": "Point", "coordinates": [119.60357673958693, 18.295719351667152]}}, {"type": "Feature", "properties": {"norad_id": 41861, "name": "GSAT0213 (GALILEO 17)", "group": "gnss", "lat": 18.893880516028126, "lon": -87.2477088577133, "alt_km": 23223.678192555264, "timestamp": "2025-12-06T05:40:09.483784+00:00", "meta": {"OBJECT_NAME": "GSAT0213 (GALILEO 17)", "OBJECT_ID": "2016-069C", "EPOCH": "2025-12-04T19:22:49.962144", "MEAN_MOTION": 1.70474712, "ECCENTRICITY": 0.00021375, "INCLINATION": 55.3775, "RA_OF_ASC_NODE": 106.4729, "ARG_OF_PERICENTER": 283.7545, "MEAN_ANOMALY": 76.173, "EPHEMERIS_TYPE": 0, "CLASSIFICATION_TYPE": "U", "NORAD_CAT_ID": 41861, "ELEMENT_SET_NO": 999, "REV_AT_EPOCH": 5620, "BSTAR": 0, "MEAN_MOTION_DOT": 1e-07, "MEAN_MOTION_DDOT": 0}, "tle": {"line1": "1 41861U 16069C   25338.80752271  .00000010  00000+0  00000+0 0  9994", "line2": "2 41861  55.3775 106.4729 0002137 283.7545  76.1730  1.70474712 56200"}}, "geometry": {"type": "Point", "coordinates": [-87.2477088577133, 18.893880516028126]}}, {"type": "Feature", "properties": {"norad_id": 41862, "name": "GSAT0214 (GALILEO 18)", "group": "gnss", "lat": 49.36443874176931, "lon": 159.9608492087092, "alt_km": 23218.73069591803, "timestamp": "2025-12-06T05:40:09.483796+00:00", "meta": {"OBJECT_NAME": "GSAT0214 (GALILEO 18)", "OBJECT_ID": "2016-069D", "EPOCH": "2025-12-04T08:48:23.346432", "MEAN_MOTION": 1.7047456, "ECCENTRICITY": 0.00011429, "INCLINATION": 55.3755, "RA_OF_ASC_NODE": 106.478, "ARG_OF_PERICENTER": 290.8494, "MEAN_ANOMALY": 69.0905, "EPHEMERIS_TYPE": 0, "CLASSIFICATION_TYPE": "U", "NORAD_CAT_ID": 41862, "ELEMENT_SET_NO": 999, "REV_AT_EPOCH": 5632, "BSTAR": 0, "MEAN_MOTION_DOT": 1.3e-07, "MEAN_MOTION_DDOT": 0}, "tle": {"line1": "1 41862U 16069D   25338.36693688  .00000013  00000+0  00000+0 0  9995", "line2": "2 41862  55.3755 106.4780 0001142 290.8494  69.0905  1.70474560 56322"}}, "geometry": {"type": "Point", "coordinates": [159.9608492087092, 49.36443874176931]}}, {"type": "Feature", "properties": {"norad_id": 42709, "name": "SES-15 (WAAS/PRN 133)", "group": "gnss", "lat": 0.03531766112121484, "lon": 31.161131487341926, "alt_km": 35789.0022147072, "timestamp": "2025-12-06T05:40:09.483807+00:00", "meta": {"OBJECT_NAME": "SES-15 (WAAS/PRN 133)", "OBJECT_ID": "2017-026A", "EPOCH": "2025-12-04T23:23:09.824064", "MEAN_MOTION": 1.00274528, "ECCENTRICITY": 9.026e-05, "INCLINATION": 0.019, "RA_OF_ASC_NODE": 341.2917, "ARG_OF_PERICENTER": 233.8903, "MEAN_ANOMALY": 80.4857, "EPHEMERIS_TYPE": 0, "CLASSIFICATION_TYPE": "U", "NORAD_CAT_ID": 42709, "ELEMENT_SET_NO": 999, "REV_AT_EPOCH": 548, "BSTAR": 0, "MEAN_MOTION_DOT": 7.2e-07, "MEAN_MOTION_DDOT": 0}, "tle": {"line1": "1 42709U 17026A   25338.97441926  .00000072  00000+0  00000+0 0  9998", "line2": "2 42709   0.0190 341.2917 0000902 233.8903  80.4857  1.00274528  5488"}}, "geometry": {"type": "Point", "coordinates": [31.161131487341926, 0.03531766112121484]}}, {"type": "Feature", "properties": {"norad_id": 42738, "name": "QZS-2 (QZSS/PRN 194)", "group": "gnss", "lat": 33.7309212056519, "lon": -60.63930198846564, "alt_km": 38499.236721201705, "timestamp": "2025-12-06T05:40:09.483821+00:00", "meta": {"OBJECT_NAME": "QZS-2 (QZSS/PRN 194)", "OBJECT_ID": "2017-028A", "EPOCH": "2025-12-04T14:21:45.952128", "MEAN_MOTION": 1.00285177, "ECCENTRICITY": 0.0758839, "INCLINATION": 39.7274, "RA_OF_ASC_NODE": 246.0027, "ARG_OF_PERICENTER": 269.3925, "MEAN_ANOMALY": 275.2021, "EPHEMERIS_TYPE": 0, "CLASSIFICATION_TYPE": "U", "NORAD_CAT_ID": 42738, "ELEMENT_SET_NO": 999, "REV_AT_EPOCH": 567, "BSTAR": 0, "MEAN_MOTION_DOT": -1.53e-06, "MEAN_MOTION_DDOT": 0}, "tle": {"line1": "1 42738U 17028A   25338.59844852 -.00000153  00000+0  00000+0 0  9996", "line2": "2 42738  39.7274 246.0027 0758839 269.3925 275.2021  1.00285177  5673"}}, "geometry": {"type": "Point", "coordinates": [-60.63930198846564, 33.7309212056519]}}]}